{
  "norad_id": 68620,
  "name": "STARLINK-37211",
  "history": [
    {
      "epoch": "2026-04-16T20:35:10.363776Z",
      "apogee_km": 328.53637419325787,
      "perigee_km": 327.017618791333,
      "latitude_deg": 7.547137649029707e-06,
      "longitude_deg": 150.70137246964708,
      "height_km": 330.92848428354023,
      "semi_major_axis_km": 6705.913996492295,
      "eccentricity": 0.00011324,
      "inclination_deg": 97.2848,
      "raan_deg": 304.494,
      "arg_perigee_deg": 88.283,
      "mean_anomaly_deg": 271.8568,
      "mean_motion_rev_day": 15.80941475
    }
  ]
}