STARLINK-37211          
1 68620U 26073U   26106.85775884 -.00371081  00000+0 -20084-2 0  9994
2 68620  97.2848 304.4940 0001132  88.2830 271.8568 15.80941475  1565
